NOAA 1 [-]              
1 04793U 70106A   15355.57200797 -.00000027  00000-0  11749-3 0  9998
2 04793 101.8839  50.5263 0032013 222.4411 306.5254 12.53975269 61024
NOAA 2 [-]              
1 06235U 72082A   15355.56142125 -.00000022  00000-0  13718-3 0  9998
2 06235 101.5986 320.5385 0003905 325.0410 147.6673 12.53076614975354
NOAA 3 [-]              
1 06920U 73086A   15355.55777781 -.00000014  00000-0  22193-3 0  9993
2 06920 101.8588 326.1447 0006862  14.3970  95.0661 12.40355743907145
NOAA 4 [-]              
1 07529U 74089A   15355.57086985 -.00000011  00000-0  20849-3 0  9997
2 07529 101.5596 326.0603 0009170 356.2033 115.8659 12.53110935879943
NOAA 5 [-]              
1 09057U 76077A   15355.54605953 -.00000053  00000-0 -78061-4 0  9990
2 09057 101.7729 345.5000 0009494 223.6128 254.7567 12.37772533780749
TIROS N [P]             
1 11060U 78096A   15354.50789989  .00000094  00000-0  68088-4 0  9998
2 11060  98.9702  30.0942 0011555  95.5033 264.7460 14.18085476135793
NOAA 6 [P]              
1 11416U 79057A   15355.53667064  .00000274  00000-0  11515-3 0  9996
2 11416  98.5267 338.9039 0011369  59.4438 300.7867 14.33290255902196
NOAA 7 [-]              
1 12553U 81059A   15355.54957425  .00000061  00000-0  52794-4 0  9997
2 12553  98.9789 318.6493 0011655   6.9117 103.8128 14.17171116782330
NOAA 8 [-]              
1 13923U 83022A   15355.55651552  .00000180  00000-0  88638-4 0  9992
2 13923  98.4743 349.1089 0014680 324.9652  35.0563 14.28485976704275
NOAA 9 [P]              
1 15427U 84123A   15355.52682855  .00000107  00000-0  76270-4 0  9991
2 15427  98.7410 296.8189 0015890  73.8496  55.0886 14.15926795601438
NOAA 10 [-]             
1 16969U 86073A   15355.51878574  .00000109  00000-0  61075-4 0  9992
2 16969  98.4772   9.6213 0013238  75.4140  40.2141 14.27941208522840
NOAA 11 [-]             
1 19531U 88089A   15355.21506099  .00000020  00000-0  32007-4 0  9991
2 19531  98.6263  62.7275 0011731 153.7526 206.4245 14.15173554405813
NOAA 12 [-]             
1 21263U 91032A   15355.53503810  .00000058  00000-0  42805-4 0  9999
2 21263  98.6131  19.4536 0014771  70.4410  47.5341 14.25791970279263
NOAA 13 [-]             
1 22739U 93050A   15355.22792285  .00000045  00000-0  47263-4 0  9991
2 22739  98.6398  54.5613 0008517 289.3090 106.6595 14.12635539152643
NOAA 14 [-]             
1 23455U 94089A   15355.50581553  .00000009  00000-0  27252-4 0  9991
2 23455  98.7394  72.9865 0008423 266.0816 214.4853 14.14062937 82008
NOAA 15 [B]             
1 25338U 98030A   15355.54413113  .00000159  00000-0  85772-4 0  9990
2 25338  98.7795 354.3770 0010466 350.4499   9.6480 14.25688081915531
NOAA 16 [-]             
1 26536U 00055A   15355.44570399  .00000286  00000-0  17676-3 0  9998
2 26536  98.9213  61.0379 0011354  65.4900 294.7455 14.13128541786119
NOAA 17 [-]             
1 27453U 02032A   15355.49758525  .00000070  00000-0  47613-4 0  9994
2 27453  98.3613 332.4145 0011694 359.0892   1.0265 14.24914603701334
NOAA 18 [B]             
1 28654U 05018A   15355.52854705  .00000085  00000-0  71608-4 0  9993
2 28654  99.1942 352.8468 0014684 152.6869 207.5076 14.12256421545512
NOAA 19 [+]             
1 33591U 09005A   15355.52498060  .00000220  00000-0  14487-3 0  9999
2 33591  99.0159 306.0774 0014202   6.3542 353.7807 14.12018736353920
NPP [+]                 
1 37849U 11061A   15354.53208507  .00000072  00000-0  54833-4 0  9994
2 37849  98.7043 290.5751 0000334  51.1912  55.7695 14.19560409214814
